{"type": "FeatureCollection", "features": [ {"type": "Feature", "properties": {"norad_id": 39537, "name": "FENGYUN 1C DEB", "group": "fengyun-1c-debris", "lat": 64.38560440363591, "lon": -23.065570609741872, "alt_km": 1049.5995328793479, "timestamp": "2025-12-17T15:50:10.070180+00:00", "meta": {"OBJECT_NAME": "FENGYUN 1C DEB", "OBJECT_ID": "1999-025EWE", "EPOCH": "2025-12-08T16:10:28.003008", "MEAN_MOTION": 13.84154142, "ECCENTRICITY": 0.01774078, "INCLINATION": 99.1538, "RA_OF_ASC_NODE": 128.5243, "ARG_OF_PERICENTER": 352.1329, "MEAN_ANOMALY": 7.7052, "EPHEMERIS_TYPE": 0, "CLASSIFICATION_TYPE": "U", "NORAD_CAT_ID": 39537, "ELEMENT_SET_NO": 999, "REV_AT_EPOCH": 59200, "BSTAR": 0.0019509183, "MEAN_MOTION_DOT": 2.413e-05, "MEAN_MOTION_DDOT": 0}, "tle": {"line1": "1 39537U 99025EWE 25342.67393522  .00002413  00000+0  19509-2 0  9990", "line2": "2 39537  99.1538 128.5243 0177407 352.1329   7.7052 13.84154142592000"}}, "geometry": {"type": "Point", "coordinates": [-23.065570609741872, 64.38560440363591]}}, {"type": "Feature", "properties": {"norad_id": 39541, "name": "FENGYUN 1C DEB", "group": "fengyun-1c-debris", "lat": 62.68486619969003, "lon": -129.11472767465844, "alt_km": 789.1150401144832, "timestamp": "2025-12-17T15:50:10.070191+00:00", "meta": {"OBJECT_NAME": "FENGYUN 1C DEB", "OBJECT_ID": "1999-025EWJ", "EPOCH": "2025-12-14T09:31:50.250432", "MEAN_MOTION": 14.20397112, "ECCENTRICITY": 0.00718166, "INCLINATION": 98.681, "RA_OF_ASC_NODE": 30.4764, "ARG_OF_PERICENTER": 68.7411, "MEAN_ANOMALY": 292.1416, "EPHEMERIS_TYPE": 0, "CLASSIFICATION_TYPE": "U", "NORAD_CAT_ID": 39541, "ELEMENT_SET_NO": 999, "REV_AT_EPOCH": 59026, "BSTAR": 0.00071004371, "MEAN_MOTION_DOT": 1.519e-05, "MEAN_MOTION_DDOT": 0}, "tle": {"line1": "1 39541U 99025EWJ 25348.39710938  .00001519  00000+0  71004-3 0  9999", "line2": "2 39541  98.6810  30.4764 0071816  68.7411 292.1416 14.20397112590267"}}, "geometry": {"type": "Point", "coordinates": [-129.11472767465844, 62.68486619969003]}}, {"type": "Feature", "properties": {"norad_id": 39543, "name": "FENGYUN 1C DEB", "group": "fengyun-1c-debris", "lat": 60.45126802084035, "lon": -142.46432270098637, "alt_km": 747.0338522887478, "timestamp": "2025-12-17T15:50:10.070201+00:00", "meta": {"OBJECT_NAME": "FENGYUN 1C DEB", "OBJECT_ID": "1999-025EWL", "EPOCH": "2025-12-16T07:43:36.530976", "MEAN_MOTION": 13.70197726, "ECCENTRICITY": 0.03391489, "INCLINATION": 99.0417, "RA_OF_ASC_NODE": 19.9631, "ARG_OF_PERICENTER": 132.7774, "MEAN_ANOMALY": 230.2435, "EPHEMERIS_TYPE": 0, "CLASSIFICATION_TYPE": "U", "NORAD_CAT_ID": 39543, "ELEMENT_SET_NO": 999, "REV_AT_EPOCH": 49234, "BSTAR": 0.00081019098, "MEAN_MOTION_DOT": 1.033e-05, "MEAN_MOTION_DDOT": 0}, "tle": {"line1": "1 39543U 99025EWL 25350.32195059  .00001033  00000+0  81019-3 0  9996", "line2": "2 39543  99.0417  19.9631 0339148 132.7774 230.2435 13.70197726492348"}}, "geometry": {"type": "Point", "coordinates": [-142.46432270098637, 60.45126802084035]}}, {"type": "Feature", "properties": {"norad_id": 39544, "name": "FENGYUN 1C DEB", "group": "fengyun-1c-debris", "lat": 73.45878970407867, "lon": -160.57900634588748, "alt_km": 860.9300364468336, "timestamp": "2025-12-17T15:50:10.070211+00:00", "meta": {"OBJECT_NAME": "FENGYUN 1C DEB", "OBJECT_ID": "1999-025EWM", "EPOCH": "2025-12-08T09:22:33.750624", "MEAN_MOTION": 14.05512501, "ECCENTRICITY": 0.00547745, "INCLINATION": 98.7418, "RA_OF_ASC_NODE": 221.6849, "ARG_OF_PERICENTER": 21.3384, "MEAN_ANOMALY": 339.0051, "EPHEMERIS_TYPE": 0, "CLASSIFICATION_TYPE": "U", "NORAD_CAT_ID": 39544, "ELEMENT_SET_NO": 999, "REV_AT_EPOCH": 56794, "BSTAR": 0.00088149338, "MEAN_MOTION_DOT": 1.41e-05, "MEAN_MOTION_DDOT": 0}, "tle": {"line1": "1 39544U 99025EWM 25342.39066841  .00001410  00000+0  88149-3 0  9991", "line2": "2 39544  98.7418 221.6849 0054774  21.3384 339.0051 14.05512501567940"}}, "geometry": {"type": "Point", "coordinates": [-160.57900634588748, 73.45878970407867]}}, {"type": "Feature", "properties": {"norad_id": 40688, "name": "FENGYUN 1C DEB", "group": "fengyun-1c-debris", "lat": 6.012855705151409, "lon": 140.03979904552966, "alt_km": 850.4764239458336, "timestamp": "2025-12-17T15:50:10.070221+00:00", "meta": {"OBJECT_NAME": "FENGYUN 1C DEB", "OBJECT_ID": "1999-025EWU", "EPOCH": "2025-12-16T15:30:51.926976", "MEAN_MOTION": 13.83832455, "ECCENTRICITY": 0.01420789, "INCLINATION": 98.9687, "RA_OF_ASC_NODE": 140.0258, "ARG_OF_PERICENTER": 21.0434, "MEAN_ANOMALY": 339.6489, "EPHEMERIS_TYPE": 0, "CLASSIFICATION_TYPE": "U", "NORAD_CAT_ID": 40688, "ELEMENT_SET_NO": 999, "REV_AT_EPOCH": 29971, "BSTAR": 0.00034363233, "MEAN_MOTION_DOT": 3.7e-06, "MEAN_MOTION_DDOT": 0}, "tle": {"line1": "1 40688U 99025EWU 25350.64643434  .00000370  00000+0  34363-3 0  9991", "line2": "2 40688  98.9687 140.0258 0142078  21.0434 339.6489 13.83832455299713"}}, "geometry": {"type": "Point", "coordinates": [140.03979904552966, 6.012855705151409]}}, {"type": "Feature", "properties": {"norad_id": 40689, "name": "FENGYUN 1C DEB", "group": "fengyun-1c-debris", "lat": 57.78427977942942, "lon": 104.11412059873118, "alt_km": 816.951797920814, "timestamp": "2025-12-17T15:50:10.070232+00:00", "meta": {"OBJECT_NAME": "FENGYUN 1C DEB", "OBJECT_ID": "1999-025EWV", "EPOCH": "2025-12-15T14:00:17.692704", "MEAN_MOTION": 13.64713186, "ECCENTRICITY": 0.03107205, "INCLINATION": 99.1258, "RA_OF_ASC_NODE": 267.381, "ARG_OF_PERICENTER": 93.9269, "MEAN_ANOMALY": 269.7453, "EPHEMERIS_TYPE": 0, "CLASSIFICATION_TYPE": "U", "NORAD_CAT_ID": 40689, "ELEMENT_SET_NO": 999, "REV_AT_EPOCH": 54922, "BSTAR": 0.0014500265, "MEAN_MOTION_DOT": 1.584e-05, "MEAN_MOTION_DDOT": 0}, "tle": {"line1": "1 40689U 99025EWV 25349.58353811  .00001584  00000+0  14500-2 0  9998", "line2": "2 40689  99.1258 267.3810 0310720  93.9269 269.7453 13.64713186549229"}}, "geometry": {"type": "Point", "coordinates": [104.11412059873118, 57.78427977942942]}}, {"type": "Feature", "properties": {"norad_id": 40691, "name": "FENGYUN 1C DEB", "group": "fengyun-1c-debris", "lat": -43.28485779868835, "lon": 32.432585035430854, "alt_km": 846.1557232352943, "timestamp": "2025-12-17T15:50:10.070242+00:00", "meta": {"OBJECT_NAME": "FENGYUN 1C DEB", "OBJECT_ID": "1999-025EWX", "EPOCH": "2025-12-03T08:15:02.306016", "MEAN_MOTION": 13.89944729, "ECCENTRICITY": 0.0128434, "INCLINATION": 99.0573, "RA_OF_ASC_NODE": 9.8547, "ARG_OF_PERICENTER": 336.6089, "MEAN_ANOMALY": 22.9259, "EPHEMERIS_TYPE": 0, "CLASSIFICATION_TYPE": "U", "NORAD_CAT_ID": 40691, "ELEMENT_SET_NO": 999, "REV_AT_EPOCH": 55305, "BSTAR": 0.00023937, "MEAN_MOTION_DOT": 2.71e-06, "MEAN_MOTION_DDOT": 0}, "tle": {"line1": "1 40691U 99025EWX 25337.34377669  .00000271  00000+0  23937-3 0  9996", "line2": "2 40691  99.0573   9.8547 0128434 336.6089  22.9259 13.89944729553058"}}, "geometry": {"type": "Point", "coordinates": [32.432585035430854, -43.28485779868835]}}, {"type": "Feature", "properties": {"norad_id": 40695, "name": "FENGYUN 1C DEB", "group": "fengyun-1c-debris", "lat": 23.525665999888055, "lon": 106.32163896187457, "alt_km": 634.8454170735158, "timestamp": "2025-12-17T15:50:10.070253+00:00", "meta": {"OBJECT_NAME": "FENGYUN 1C DEB", "OBJECT_ID": "1999-025EXB", "EPOCH": "2025-12-16T13:15:02.620224", "MEAN_MOTION": 14.50971147, "ECCENTRICITY": 0.02806167, "INCLINATION": 99.4261, "RA_OF_ASC_NODE": 109.2273, "ARG_OF_PERICENTER": 321.7129, "MEAN_ANOMALY": 36.4428, "EPHEMERIS_TYPE": 0, "CLASSIFICATION_TYPE": "U", "NORAD_CAT_ID": 40695, "ELEMENT_SET_NO": 999, "REV_AT_EPOCH": 31921, "BSTAR": 0.00018726661, "MEAN_MOTION_DOT": 1.155e-05, "MEAN_MOTION_DDOT": 0}, "tle": {"line1": "1 40695U 99025EXB 25350.55211366  .00001155  00000+0  18727-3 0  9992", "line2": "2 40695  99.4261 109.2273 0280616 321.7129  36.4428 14.50971147319211"}}, "geometry": {"type": "Point", "coordinates": [106.32163896187457, 23.525665999888055]}}, {"type": "Feature", "properties": {"norad_id": 40696, "name": "FENGYUN 1C DEB", "group": "fengyun-1c-debris", "lat": 24.171571537399586, "lon": -25.770935860508583, "alt_km": 860.2506605559493, "timestamp": "2025-12-17T15:50:10.070264+00:00", "meta": {"OBJECT_NAME": "FENGYUN 1C DEB", "OBJECT_ID": "1999-025EXC", "EPOCH": "2025-12-17T05:24:20.221920", "MEAN_MOTION": 13.96744083, "ECCENTRICITY": 0.00795529, "INCLINATION": 98.9563, "RA_OF_ASC_NODE": 337.8647, "ARG_OF_PERICENTER": 345.1128, "MEAN_ANOMALY": 14.7694, "EPHEMERIS_TYPE": 0, "CLASSIFICATION_TYPE": "U", "NORAD_CAT_ID": 40696, "ELEMENT_SET_NO": 999, "REV_AT_EPOCH": 55742, "BSTAR": 8.1397831e-05, "MEAN_MOTION_DOT": 7.3e-07, "MEAN_MOTION_DDOT": 0}, "tle": {"line1": "1 40696U 99025EXC 25351.22523405  .00000073  00000+0  81398-4 0  9991", "line2": "2 40696  98.9563 337.8647 0079552 345.1128  14.7694 13.96744083557426"}}, "geometry": {"type": "Point", "coordinates": [-25.770935860508583, 24.171571537399586]}}, {"type": "Feature", "properties": {"norad_id": 41003, "name": "FENGYUN 1C DEB", "group": "fengyun-1c-debris", "lat": -8.33427692327652, "lon": 89.95289254401877, "alt_km": 653.8213956546952, "timestamp": "2025-12-17T15:50:10.070274+00:00", "meta": {"OBJECT_NAME": "FENGYUN 1C DEB", "OBJECT_ID": "1999-025EXH", "EPOCH": "2025-12-16T01:28:49.054368", "MEAN_MOTION": 14.72972088, "ECCENTRICITY": 0.00697312, "INCLINATION": 98.9662, "RA_OF_ASC_NODE": 269.5151, "ARG_OF_PERICENTER": 281.8657, "MEAN_ANOMALY": 77.4734, "EPHEMERIS_TYPE": 0, "CLASSIFICATION_TYPE": "U", "NORAD_CAT_ID": 41003, "ELEMENT_SET_NO": 999, "REV_AT_EPOCH": 52469, "BSTAR": 0.0031107166, "MEAN_MOTION_DOT": 0.00020745, "MEAN_MOTION_DDOT": 0}, "tle": {"line1": "1 41003U 99025EXH 25350.06167887  .00020745  00000+0  31107-2 0  9992", "line2": "2 41003  98.9662 269.5151 0069731 281.8657  77.4734 14.72972088524698"}}, "geometry": {"type": "Point", "coordinates": [89.95289254401877, -8.33427692327652]}}]}